Satellite: NOAA-14
Catalog number: 23455
Epoch time:      13066.45219578
Element set:     229
Inclination:      098.8057 deg
RA of node:       152.4206 deg
Eccentricity:    0.0008399
Arg of perigee:   287.6125 deg
Mean anomaly:     131.6049 deg
Mean motion:   14.13895064 rev/day
Decay rate:        4.5e-07 rev/day^2
Epoch rev:           93799
Checksum:              333

Satellite: NOAA-15
Catalog number: 25338
Epoch time:      13066.51005561
Element set:     647
Inclination:      098.7186 deg
RA of node:       057.3050 deg
Eccentricity:    0.0011590
Arg of perigee:   067.2160 deg
Mean anomaly:     091.6787 deg
Mean motion:   14.25184146 rev/day
Decay rate:       1.19e-06 rev/day^2
Epoch rev:           77035
Checksum:              297

Satellite: RESURS
Catalog number: 25394
Epoch time:      13063.83016456
Element set:     320
Inclination:      098.3515 deg
RA of node:       044.7310 deg
Eccentricity:    0.0001734
Arg of perigee:   154.7259 deg
Mean anomaly:     267.7657 deg
Mean motion:   14.24321913 rev/day
Decay rate:       -1.2e-07 rev/day^2
Epoch rev:           76150
Checksum:              275

Satellite: FENGYUN1
Catalog number: 25730
Epoch time:      13065.94668639
Element set:     821
Inclination:      098.8704 deg
RA of node:       026.7749 deg
Eccentricity:    0.0023307
Arg of perigee:   338.0071 deg
Mean anomaly:     053.5708 deg
Mean motion:   14.10246448 rev/day
Decay rate:      1.771e-05 rev/day^2
Epoch rev:           71163
Checksum:              307

Satellite: OKEAN-0
Catalog number: 25860
Epoch time:      13066.86689086
Element set:     886
Inclination:      097.9786 deg
RA of node:       030.7529 deg
Eccentricity:    0.0002163
Arg of perigee:   107.6421 deg
Mean anomaly:     304.7140 deg
Mean motion:   14.74494432 rev/day
Decay rate:       5.01e-06 rev/day^2
Epoch rev:           73342
Checksum:              311

Satellite: NOAA-16
Catalog number: 26536
Epoch time:      13066.51662137
Element set:     125
Inclination:      099.0556 deg
RA of node:       118.2154 deg
Eccentricity:    0.0011219
Arg of perigee:   066.3995 deg
Mean anomaly:     066.6766 deg
Mean motion:   14.12845657 rev/day
Decay rate:       1.04e-06 rev/day^2
Epoch rev:           64221
Checksum:              302

Satellite: NOAA-17
Catalog number: 27453
Epoch time:      13066.52278508
Element set:      49
Inclination:      098.3179 deg
RA of node:       085.9737 deg
Eccentricity:    0.0012897
Arg of perigee:   104.6295 deg
Mean anomaly:     042.8302 deg
Mean motion:   14.24545284 rev/day
Decay rate:       1.11e-06 rev/day^2
Epoch rev:           55624
Checksum:              318

Satellite: NOAA-18
Catalog number: 28654
Epoch time:      13066.52883322
Element set:     531
Inclination:      099.0888 deg
RA of node:       033.3486 deg
Eccentricity:    0.0015164
Arg of perigee:   132.3124 deg
Mean anomaly:     337.9905 deg
Mean motion:   14.11778088 rev/day
Decay rate:       2.70e-06 rev/day^2
Epoch rev:           40171
Checksum:              307

Satellite: NOAA-19
Catalog number: 33591
Epoch time:      13066.52763821
Element set:     719
Inclination:      098.8959 deg
RA of node:       009.4412 deg
Eccentricity:    0.0014009
Arg of perigee:   001.7224 deg
Mean anomaly:     121.6658 deg
Mean motion:   14.11465905 rev/day
Decay rate:       2.17e-06 rev/day^2
Epoch rev:           21015
Checksum:              290

/EX
SB KEPS @ AMSAT  $ORB13066.M
Orbital Elements  13066.MISC

HR AMSAT ORBITAL ELEMENTS FOR MANNED AND MISCELLANEOUS SATELLITES
FROM WA5QGD FORT WORTH,TX March 7, 2013
BID: ORB13066.M
TO ALL RADIO AMATEURS BT

Satellite: HUBBLE
Catalog number: 20580
Epoch time:      13065.85087689
Element set:     189
Inclination:      028.4695 deg
RA of node:       223.5476 deg
Eccentricity:    0.0003380
Arg of perigee:   343.1561 deg
Mean anomaly:     165.3609 deg
Mean motion:   15.03332840 rev/day
Decay rate:      1.757e-05 rev/day^2
Epoch rev:            5428
Checksum:              305

Satellite: ISS
Catalog number: 25544
Epoch time:      13066.89191705
Element set:     360
Inclination:      051.6469 deg
RA of node:       251.3658 deg
Eccentricity:    0.0011615
Arg of perigee:   350.8388 deg
Mean anomaly:     157.1656 deg
Mean motion:   15.52623524 rev/day
Decay rate:     1.0591e-04 rev/day^2
Epoch rev:           81897
Checksum:              317

Satellite: CO-58
Catalog number: 28895
Epoch time:      13065.84452723
Element set:     420
Inclination:      097.8832 deg
RA of node:       286.0986 deg
Eccentricity:    0.0018469
Arg of perigee:   048.2069 deg
Mean anomaly:     007.4433 deg
Mean motion:   14.60982148 rev/day
Decay rate:       6.09e-06 rev/day^2
Epoch rev:           39200
Checksum:              337

Satellite: FALCON
Catalog number: 30776
Epoch time:      13065.54935789
Element set:     564
Inclination:      035.4311 deg
RA of node:       111.7044 deg
Eccentricity:    0.0001879
Arg of perigee:   177.4331 deg
Mean anomaly:     308.5935 deg
Mean motion:   15.09683181 rev/day
Decay rate:      4.165e-05 rev/day^2
Epoch rev:           32989
Checksum:              319

Satellite: MAST
Catalog number: 31126
Epoch time:      13066.88493522
Element set:     700
Inclination:      097.8787 deg
RA of node:       068.6137 deg
Eccentricity:    0.0093257
Arg of perigee:   009.5444 deg
Mean anomaly:     057.1683 deg
Mean motion:   14.54453195 rev/day
Decay rate:       6.89e-06 rev/day^2
Epoch rev:           31259
Checksum:              329

Satellite: CAPE1
Catalog number: 31130
Epoch time:      13065.89454918
Element set:     711
Inclination:      097.8942 deg
RA of node:       064.0023 deg
Eccentricity:    0.0101252
Arg of perigee:   027.5016 deg
Mean anomaly:     042.1896 deg
Mean motion:   14.53325224 rev/day
Decay rate:       9.67e-06 rev/day^2
Epoch rev:           31192
Checksum:              275

Satellite: COMPASS
Catalog number: 32787
Epoch time:      13066.83577567
Element set:     562
Inclination:      097.7641 deg
RA of node:       128.0001 deg
Eccentricity:    0.0013401
Arg of perigee:   275.3098 deg
Mean anomaly:     196.7568 deg
Mean motion:   14.85044273 rev/day
Decay rate:      2.099e-05 rev/day^2
Epoch rev:           26292
Checksum:              322

Satellite: AAUSAT2
Catalog number: 32788
Epoch time:      13066.74096500
Element set:     552
Inclination:      097.7648 deg
RA of node:       128.4582 deg
Eccentricity:    0.0013043
Arg of perigee:   275.2514 deg
Mean anomaly:     202.8906 deg
Mean motion:   14.85464851 rev/day
Decay rate:      2.202e-05 rev/day^2
Epoch rev:           26294
Checksum:              307

