NOAA-14
1 23455U 94089A   13066.45219578  .00000045  00000-0  47018-4 0  2295
2 23455 098.8057 152.4206 0008399 287.6125 131.6049 14.13895064937990
NOAA-15
1 25338U 98030A   13066.51005561  .00000119  00000-0  69615-4 0  6472
2 25338 098.7186 057.3050 0011590 067.2160 091.6787 14.25184146770356
RESURS
1 25394U 98043A   13063.83016456 -.00000012  00000-0  12521-4 0  3200
2 25394 098.3515 044.7310 0001734 154.7259 267.7657 14.24321913761502
FENGYUN1
1 25730U 99025A   13065.94668639  .00001771  00000-0  10214-2 0  8218
2 25730 098.8704 026.7749 0023307 338.0071 053.5708 14.10246448711637
OKEAN-0
1 25860U 99039A   13066.86689086  .00000501  00000-0  82829-4 0  8862
2 25860 097.9786 030.7529 0002163 107.6421 304.7140 14.74494432733428
NOAA-16
1 26536U 00055A   13066.51662137  .00000104  00000-0  80621-4 0  1256
2 26536 099.0556 118.2154 0011219 066.3995 066.6766 14.12845657642217
NOAA-17
1 27453U 02032A   13066.52278508  .00000111  00000-0  65484-4 0   491
2 27453 098.3179 085.9737 0012897 104.6295 042.8302 14.24545284556243
NOAA-18
1 28654U 05018A   13066.52883322  .00000270  00000-0  17326-3 0  5311
2 28654 099.0888 033.3486 0015164 132.3124 337.9905 14.11778088401713
NOAA-19
1 33591U 09005A   13066.52763821  .00000217  00000-0  14423-3 0  7192
2 33591 098.8959 009.4412 0014009 001.7224 121.6658 14.11465905210155
HUBBLE
1 20580U 90037B   13065.85087689  .00001757  00000-0  11404-3 0  1894
2 20580 028.4695 223.5476 0003380 343.1561 165.3609 15.03332840 54285
ISS
1 25544U 98067A   13066.89191705  .00010591  00000-0  17591-3 0  3600
2 25544 051.6469 251.3658 0011615 350.8388 157.1656 15.52623524818971
CO-58
1 28895U 05043F   13065.84452723  .00000609  00000-0  13291-3 0  4207
2 28895 097.8832 286.0986 0018469 048.2069 007.4433 14.60982148392005
FALCON
1 30776U 07006E   13065.54935789  .00004165  00000-0  25568-3 0  5644
2 30776 035.4311 111.7044 0001879 177.4331 308.5935 15.09683181329897
MAST
1 31126U 07012K   13066.88493522  .00000689  00000-0  16308-3 0  7004
2 31126 097.8787 068.6137 0093257 009.5444 057.1683 14.54453195312595
CAPE1
1 31130U 07012P   13065.89454918  .00000967  00000-0  22786-3 0  7113
2 31130 097.8942 064.0023 0101252 027.5016 042.1896 14.53325224311923
COMPASS
1 32787U 08021E   13066.83577567  .00002099  00000-0  25173-3 0  5629
2 32787 097.7641 128.0001 0013401 275.3098 196.7568 14.85044273262929
AAUSAT2
1 32788U 08021F   13066.74096500  .00002202  00000-0  26115-3 0  5525
2 32788 097.7648 128.4582 0013043 275.2514 202.8906 14.85464851262944
